CTC1_L_00626007-03
1 36055U 26976CP  26037.47810185  .00000000  00000+0  00000-0 0  9990
2 36055  70.0000 180.0000 0000000   0.0000 144.0000  4.33913755    17
CTC1_L_00626007-04
1 36056U 23452NI  26037.47810185  .00000000  00000+0  00000-0 0  9997
2 36056  70.0000 180.0000 0000000   0.0000 180.0000  4.33913755    18
CTC1_L_00626007-05
1 36057U 23660DC  26037.47810185  .00000000  00000+0  00000-0 0  9999
2 36057  70.0000 180.0000 0000000   0.0000 216.0000  4.33913755    19
CTC1_L_00626007-06
1 36058U 24083FU  26037.47810185  .00000000  00000+0  00000-0 0  9990
2 36058  70.0000 180.0000 0000000   0.0000 252.0000  4.33913755    10
CTC1_L_00626007-07
1 36059U 24596AL  26037.47810185  .00000000  00000+0  00000-0 0  9990
2 36059  70.0000 180.0000 0000000   0.0000 288.0000  4.33913755    10
CTC1_L_00626007-08
1 36060U 23709BG  26037.47810185  .00000000  00000+0  00000-0 0  9997
2 36060  70.0000 180.0000 0000000   0.0000 324.0000  4.33913755    13
CTC1_L_00626007-09
1 36061U 24056SR  26037.47810185  .00000000  00000+0  00000-0 0  9994
2 36061  70.0000 180.0000 0000000   0.0000   0.0000  4.33913755    15
CTC1_L_00626007-10
1 36062U 25966WD  26037.47810185  .00000000  00000+0  00000-0 0  9996
2 36062  70.0000 180.0000 0000000   0.0000  36.0000  4.33913755    15
CTC1_L_00626008-01
1 36063U 22399RU  26037.47810185  .00000000  00000+0  00000-0 0  9994
2 36063  70.0000 210.0000 0000000   0.0000  84.0000  4.33913755    13
CTC1_L_00626008-02
1 36064U 26449PV  26037.47810185  .00000000  00000+0  00000-0 0  9995
2 36064  70.0000 210.0000 0000000   0.0000 120.0000  4.33913755    15
CTC1_L_00626008-03
1 36065U 22395SG  26037.47810185  .00000000  00000+0  00000-0 0  9992
2 36065  70.0000 210.0000 0000000   0.0000 156.0000  4.33913755    15
CTC1_L_00626008-04
1 36066U 26851MJ  26037.47810185  .00000000  00000+0  00000-0 0  9994
2 36066  70.0000 210.0000 0000000   0.0000 192.0000  4.33913755    16
CTC1_L_00626008-05
1 36067U 22225EO  26037.47810185  .00000000  00000+0  00000-0 0  9996
2 36067  70.0000 210.0000 0000000   0.0000 228.0000  4.33913755    17
CTC1_L_00626008-06
1 36068U 23228RP  26037.47810185  .00000000  00000+0  00000-0 0  9991
2 36068  70.0000 210.0000 0000000   0.0000 264.0000  4.33913755    18
CTC1_L_00626008-07
1 36069U 26153JT  26037.47810185  .00000000  00000+0  00000-0 0  9992
2 36069  70.0000 210.0000 0000000   0.0000 300.0000  4.33913755    10
CTC1_L_00626008-08
1 36070U 24687KI  26037.47810185  .00000000  00000+0  00000-0 0  9994
2 36070  70.0000 210.0000 0000000   0.0000 336.0000  4.33913755    11
CTC1_L_00626008-09
1 36071U 25528YS  26037.47810185  .00000000  00000+0  00000-0 0  9990
2 36071  70.0000 210.0000 0000000   0.0000  12.0000  4.33913755    13
CTC1_L_00626008-10
1 36072U 24528UC  26037.47810185  .00000000  00000+0  00000-0 0  9990
2 36072  70.0000 210.0000 0000000   0.0000  48.0000  4.33913755    13
CTC1_L_00626009-01
1 36073U 25473P   26037.47810185  .00000000  00000+0  00000-0 0  9991
2 36073  70.0000 240.0000 0000000   0.0000  96.0000  4.33913755    10
CTC1_L_00626009-02
1 36074U 23027QJ  26037.47810185  .00000000  00000+0  00000-0 0  9995
2 36074  70.0000 240.0000 0000000   0.0000 132.0000  4.33913755    12
CTC1_L_00626009-03
1 36075U 23694AB  26037.47810185  .00000000  00000+0  00000-0 0  9996
2 36075  70.0000 240.0000 0000000   0.0000 168.0000  4.33913755    12
CTC1_L_00626009-04
1 36076U 23200WT  26037.47810185  .00000000  00000+0  00000-0 0  9990
2 36076  70.0000 240.0000 0000000   0.0000 204.0000  4.33913755    14
CTC1_L_00626009-05
1 36077U 26993ZV  26037.47810185  .00000000  00000+0  00000-0 0  9993
2 36077  70.0000 240.0000 0000000   0.0000 240.0000  4.33913755    15
CTC1_L_00626009-06
1 36078U 22311TV  26037.47810185  .00000000  00000+0  00000-0 0  9994
2 36078  70.0000 240.0000 0000000   0.0000 276.0000  4.33913755    15
CTC1_L_00626009-07
1 36079U 26695TZ  26037.47810185  .00000000  00000+0  00000-0 0  9994
2 36079  70.0000 240.0000 0000000   0.0000 312.0000  4.33913755    17
CTC1_L_00626009-08
1 36080U 25171FT  26037.47810185  .00000000  00000+0  00000-0 0  9994
2 36080  70.0000 240.0000 0000000   0.0000 348.0000  4.33913755    18
CTC1_L_00626009-09
1 36081U 23560Z   26037.47810185  .00000000  00000+0  00000-0 0  9995
2 36081  70.0000 240.0000 0000000   0.0000  24.0000  4.33913755    10
CTC1_L_00626009-10
1 36082U 23823OS  26037.47810185  .00000000  00000+0  00000-0 0  9998
2 36082  70.0000 240.0000 0000000   0.0000  60.0000  4.33913755    11
CTC1_L_00626010-01
1 36083U 24441RX  26037.47810185  .00000000  00000+0  00000-0 0  9996
2 36083  70.0000 270.0000 0000000   0.0000 108.0000  4.33913755    18
CTC1_L_00626010-02
1 36084U 26705IS  26037.47810185  .00000000  00000+0  00000-0 0  9992
2 36084  70.0000 270.0000 0000000   0.0000 144.0000  4.33913755    19
CTC1_L_00626010-03
1 36085U 23377PX  26037.47810185  .00000000  00000+0  00000-0 0  9995
2 36085  70.0000 270.0000 0000000   0.0000 180.0000  4.33913755    10
CTC1_L_00626010-04
1 36086U 26070LA  26037.47810185  .00000000  00000+0  00000-0 0  9999
2 36086  70.0000 270.0000 0000000   0.0000 216.0000  4.33913755    11
CTC1_L_00626010-05
1 36087U 26264RS  26037.47810185  .00000000  00000+0  00000-0 0  9995
2 36087  70.0000 270.0000 0000000   0.0000 252.0000  4.33913755    12
CTC1_L_00626010-06
1 36088U 25708FF  26037.47810185  .00000000  00000+0  00000-0 0  9998
2 36088  70.0000 270.0000 0000000   0.0000 288.0000  4.33913755    12
CTC1_L_00626010-07
1 36089U 23365SO  26037.47810185  .00000000  00000+0  00000-0 0  9996
2 36089  70.0000 270.0000 0000000   0.0000 324.0000  4.33913755    14
CTC1_L_00626010-08
1 36090U 26780QS  26037.47810185  .00000000  00000+0  00000-0 0  9992
2 36090  70.0000 270.0000 0000000   0.0000   0.0000  4.33913755    17
CTC1_L_00626010-09
1 36091U 25783PM  26037.47810185  .00000000  00000+0  00000-0 0  9995
2 36091  70.0000 270.0000 0000000   0.0000  36.0000  4.33913755    17
CTC1_L_00626010-10
1 36092U 22333SC  26037.47810185  .00000000  00000+0  00000-0 0  9994
2 36092  70.0000 270.0000 0000000   0.0000  72.0000  4.33913755    18
CTC1_L_00626011-01
1 36093U 25587DF  26037.47810185  .00000000  00000+0  00000-0 0  9999
2 36093  70.0000 300.0000 0000000   0.0000 120.0000  4.33913755    17
CTC1_L_00626011-02
1 36094U 24280X   26037.47810185  .00000000  00000+0  00000-0 0  9999
2 36094  70.0000 300.0000 0000000   0.0000 156.0000  4.33913755    17
CTC1_L_00626011-03
1 36095U 22090IU  26037.47810185  .00000000  00000+0  00000-0 0  9997
2 36095  70.0000 300.0000 0000000   0.0000 192.0000  4.33913755    18
CTC1_L_00626011-04
1 36096U 24627VI  26037.47810185  .00000000  00000+0  00000-0 0  9996
2 36096  70.0000 300.0000 0000000   0.0000 228.0000  4.33913755    19
CTC1_L_00626011-05
1 36097U 25506IT  26037.47810185  .00000000  00000+0  00000-0 0  9994
2 36097  70.0000 300.0000 0000000   0.0000 264.0000  4.33913755    10
CTC1_L_00626011-06
1 36098U 23914EF  26037.47810185  .00000000  00000+0  00000-0 0  9996
2 36098  70.0000 300.0000 0000000   0.0000 300.0000  4.33913755    12
CTC1_L_00626011-07
1 36099U 22639FF  26037.47810185  .00000000  00000+0  00000-0 0  9990
2 36099  70.0000 300.0000 0000000   0.0000 336.0000  4.33913755    12
CTC1_L_00626011-08
1 36100U 26824QD  26037.47810185  .00000000  00000+0  00000-0 0  9993
2 36100  70.0000 300.0000 0000000   0.0000  12.0000  4.33913755    16
CTC1_L_00626011-09
1 36101U 23888CY  26037.47810185  .00000000  00000+0  00000-0 0  9991
2 36101  70.0000 300.0000 0000000   0.0000  48.0000  4.33913755    16
CTC1_L_00626011-10
1 36102U 22066KM  26037.47810185  .00000000  00000+0  00000-0 0  9999
2 36102  70.0000 300.0000 0000000   0.0000  84.0000  4.33913755    17
CTC1_L_00626012-01
1 36103U 25528XD  26037.47810185  .00000000  00000+0  00000-0 0  9996
2 36103  70.0000 330.0000 0000000   0.0000 132.0000  4.33913755    15
CTC1_L_00626012-02
1 36104U 25696XX  26037.47810185  .00000000  00000+0  00000-0 0  9993
2 36104  70.0000 330.0000 0000000   0.0000 168.0000  4.33913755    15
CTC1_L_00626012-03
1 36105U 23462PO  26037.47810185  .00000000  00000+0  00000-0 0  9993
2 36105  70.0000 330.0000 0000000   0.0000 204.0000  4.33913755    17
CTC1_L_00626012-04
1 36106U 22826QE  26037.47810185  .00000000  00000+0  00000-0 0  9997
2 36106  70.0000 330.0000 0000000   0.0000 240.0000  4.33913755    18
CTC1_L_00626012-05
1 36107U 23656A   26037.47810185  .00000000  00000+0  00000-0 0  9990
2 36107  70.0000 330.0000 0000000   0.0000 276.0000  4.33913755    18
CTC1_L_00626012-06
1 36108U 23855FX  26037.47810185  .00000000  00000+0  00000-0 0  9992
2 36108  70.0000 330.0000 0000000   0.0000 312.0000  4.33913755    10
CTC1_L_00626012-07
1 36109U 25609IY  26037.47810185  .00000000  00000+0  00000-0 0  9992
2 36109  70.0000 330.0000 0000000   0.0000 348.0000  4.33913755    10
CTC1_L_00626012-08
1 36110U 22171OU  26037.47810185  .00000000  00000+0  00000-0 0  9995
2 36110  70.0000 330.0000 0000000   0.0000  24.0000  4.33913755    13
CTC1_L_00626012-09
1 36111U 25227N   26037.47810185  .00000000  00000+0  00000-0 0  9991
2 36111  70.0000 330.0000 0000000   0.0000  60.0000  4.33913755    14
CTC1_L_00626012-10
1 36112U 25942LR  26037.47810185  .00000000  00000+0  00000-0 0  9996
2 36112  70.0000 330.0000 0000000   0.0000  96.0000  4.33913755    14
